STARLINK-1113
1 44926U 20001N   22147.49000160  .00001726  00000-0  13764-3 0  9994
2 44926  53.0031  71.5692 0001723  72.8016 287.3161 15.05573085132223
STARLINK-1114
1 44927U 20001P   22147.83525644 -.00001153  00000-0 -58531-4 0  9990
2 44927  53.0548  69.9922 0001709  53.7835 306.3312 15.06395867131573
STARLINK-1119
1 44928U 20001Q   22147.49983416  .00000424  00000-0  47371-4 0  9996
2 44928  53.0545  71.5015 0001889  49.9879 310.1276 15.06385865131521
STARLINK-1121
1 44929U 20001R   22147.81683131 -.00000877  00000-0 -39950-4 0  9992
2 44929  53.0557  70.0752 0001894  44.5686 315.5455 15.06393510131568
STARLINK-1123
1 44930U 20001S   22147.51826483  .00000010  00000-0  19561-4 0  9993
2 44930  53.0570  71.4195 0001525  63.1339 296.9805 15.06387119131529
STARLINK-1128
1 44931U 20001T   22147.49848512  .00005795  00000-0  36323-3 0  9997
2 44931  53.0534  66.6506 0003505  35.6747 324.4478 15.10695092132339
STARLINK-1130 (DARKSAT)
1 44932U 20001U   22147.50720503 -.00000037  00000-0  16393-4 0  9990
2 44932  53.0556  71.4773 0001572  48.9078 311.2047 15.06394866132752
STARLINK-1144
1 44933U 20001V   22147.20127275 -.00000194  00000-0  58815-5 0  9995
2 44933  53.0572  72.8605 0001608  43.1548 316.9567 15.06395523132760
STARLINK-1071
1 44934U 20001W   22147.87764311 -.00000648  00000-0 -24651-4 0  9992
2 44934  53.0565  49.8198 0001481  65.3067 294.8076 15.06388284131859
STARLINK-1079
1 44937U 20001Z   22147.92188023  .00000234  00000-0  34609-4 0  9994
2 44937  53.0566  49.6177 0001664  64.6318 295.4843 15.06396461131868
STARLINK-1082
1 44938U 20001AA  22147.88870348  .00005054  00000-0  35793-3 0  9997
2 44938  53.0558  49.7676 0001891  63.3959 296.7223 15.06404278131855
STARLINK-1083
1 44939U 20001AB  22147.89607414 -.00000392  00000-0 -74364-5 0  9992
2 44939  53.0552  49.7257 0001912  48.1802 311.9350 15.06389692131850
STARLINK-1091
1 44940U 20001AC  22147.90712986 -.00000104  00000-0  11910-4 0  9994
2 44940  53.0567  49.6823 0001969  49.1903 310.9257 15.06397358131854
STARLINK-1094
1 44941U 20001AD  22147.86289699  .00002449  00000-0  18325-3 0  9999
2 44941  53.0560  49.8834 0001716  55.7084 304.4067 15.06398516131859
STARLINK-1096
1 44942U 20001AE  22147.91175104  .00021127  00000-0  14097-2 0  9996
2 44942  53.0545  49.6268 0001982  85.8414 274.2802 15.07008296131864
STARLINK-1100
1 44943U 20001AF  22147.89238759  .00006427  00000-0  44991-3 0  9993
2 44943  53.0557  49.7519 0001605  67.2532 292.8627 15.06406334131859
STARLINK-1108
1 44944U 20001AG  22147.87395687 -.00000878  00000-0 -40036-4 0  9999
2 44944  53.0586  49.8351 0001805  50.9227 309.1923 15.06391925131859
STARLINK-1109
1 44945U 20001AH  22147.90344752  .00000177  00000-0  30804-4 0  9993
2 44945  53.0563  49.6909 0001846  46.3078 313.8064 15.06394739131854
STARLINK-1110
1 44946U 20001AJ  22147.88891415  .00029393  00000-0  16235-2 0  9995
2 44946  53.0059  39.0371 0002495 107.8051 252.3213 15.13703204131971
STARLINK-1116
1 44947U 20001AK  22147.92555917 -.00000703  00000-0 -28300-4 0  9999
2 44947  53.0562  49.5913 0001847  44.1385 315.9751 15.06397052131865
STARLINK-1122
1 44949U 20001AM  22147.88501753 -.00000404  00000-0 -82353-5 0  9992
2 44949  53.0563  49.7801 0001640  62.4218 297.6937 15.06388852131854
STARLINK-1125
1 44950U 20001AN  22147.89740264  .00019509  00000-0  12252-2 0  9999
2 44950  53.0539  48.9904 0002190 118.4908 241.6303 15.09290634131863
STARLINK-1126
1 44951U 20001AP  22147.98081841  .00020689  00000-0  11588-2 0  9991
2 44951  53.0060  39.4280 0002549 103.1973 256.9303 15.13401274133260
STARLINK-1117
1 44952U 20001AQ  22147.86658751  .00001385  00000-0  11190-3 0  9991
2 44952  53.0565  49.8682 0002199  42.8537 317.2623 15.06398491131855
STARLINK-1124
1 44953U 20001AR  22147.88407328 -.00001054  00000-0 -51898-4 0  9991
2 44953  53.0558  49.7728 0001637  66.0432 294.0729 15.06392203133144
STARLINK-1066
1 44954U 20001AS  22147.89790508 -.00000436  00000-0 -10368-4 0  9998
2 44954  53.0576  29.7147 0001551  54.1200 305.9933 15.06403500132088
STARLINK-1069
1 44955U 20001AT  22147.90528473  .00000830  00000-0  74631-4 0  9990
2 44955  53.0552  29.6970 0001979  50.8774 309.2391 15.06396969132084
STARLINK-1070
1 44956U 20001AU  22147.90160687 -.00000377  00000-0 -64289-5 0  9997
2 44956  53.0571  29.7169 0001612  71.0346 289.0818 15.06395301132146
STARLINK-1074
1 44957U 20001AV  22147.92740491 -.00004266  00000-0 -26760-3 0  9998
2 44957  53.0557  29.5939 0001743  67.4055 292.7118 15.06406363132140
STARLINK-1076
1 44959U 20001AX  22147.87580302  .00003033  00000-0  22243-3 0  9998
2 44959  53.0549  29.8182 0001976  50.1326 309.9836 15.06403938132136
STARLINK-1080
1 44961U 20001AZ  22147.88316723  .00001142  00000-0  95577-4 0  9996
2 44961  53.0555  29.8032 0001390  63.3737 296.7394 15.06401721132143
STARLINK-1085
1 44963U 20001BB  22147.93156686  .00026922  00000-0  14504-2 0  9996
2 44963  53.0001  18.5492 0001893 105.6263 254.4937 15.14637960133003
STARLINK-1086
1 44964U 20001BC  22147.91265208  .00000311  00000-0  39737-4 0  9997
2 44964  53.0562  29.6485 0001365  76.3547 283.7593 15.06402985132149
STARLINK-1088
1 44966U 20001BE  22147.93477328  .00002085  00000-0  15880-3 0  9991
2 44966  53.0579  29.5658 0001299  67.6095 292.5031 15.06399029132146
STARLINK-1089
1 44967U 20001BF  22147.89054359 -.00001110  00000-0 -55656-4 0  9998
2 44967  53.0558  29.7613 0001736  58.5549 301.5610 15.06391633132143
STARLINK-1090
1 44968U 20001BG  22147.88684841  .00003189  00000-0  23280-3 0  9996
2 44968  53.0565  29.7817 0001607  64.2720 295.8435 15.06409202132142
